[{"OBJECT_NAME":"HXMT (HUIYAN)","OBJECT_ID":"2017-034A","EPOCH":"2026-04-11T06:56:59.446752","MEAN_MOTION":15.17904752,"ECCENTRICITY":0.00303159,"INCLINATION":43.0135,"RA_OF_ASC_NODE":195.3709,"ARG_OF_PERICENTER":80.4053,"MEAN_ANOMALY":280.0219,"EPHEMERIS_TYPE":0,"CLASSIFICATION_TYPE":"U","NORAD_CAT_ID":42758,"ELEMENT_SET_NO":999,"REV_AT_EPOCH":48749,"BSTAR":0.00021256593,"MEAN_MOTION_DOT":4.197e-5,"MEAN_MOTION_DDOT":0},{"OBJECT_NAME":"SAOCOM 1A","OBJECT_ID":"2018-076A","EPOCH":"2026-04-11T07:12:47.628864","MEAN_MOTION":14.82145475,"ECCENTRICITY":0.00014514,"INCLINATION":97.891,"RA_OF_ASC_NODE":289.0129,"ARG_OF_PERICENTER":87.2409,"MEAN_ANOMALY":272.897,"EPHEMERIS_TYPE":0,"CLASSIFICATION_TYPE":"U","NORAD_CAT_ID":43641,"ELEMENT_SET_NO":999,"REV_AT_EPOCH":40619,"BSTAR":5.7777053e-5,"MEAN_MOTION_DOT":4.08e-6,"MEAN_MOTION_DDOT":0},{"OBJECT_NAME":"H-2A R/B","OBJECT_ID":"2018-084L","EPOCH":"2026-04-11T02:41:52.247328","MEAN_MOTION":15.42791208,"ECCENTRICITY":0.00230673,"INCLINATION":98.8686,"RA_OF_ASC_NODE":325.4598,"ARG_OF_PERICENTER":270.2712,"MEAN_ANOMALY":89.5888,"EPHEMERIS_TYPE":0,"CLASSIFICATION_TYPE":"U","NORAD_CAT_ID":43682,"ELEMENT_SET_NO":999,"REV_AT_EPOCH":41077,"BSTAR":0.00034760193,"MEAN_MOTION_DOT":0.00015255,"MEAN_MOTION_DDOT":0},{"OBJECT_NAME":"SAOCOM 1B","OBJECT_ID":"2020-059A","EPOCH":"2026-04-11T06:20:38.416992","MEAN_MOTION":14.82155728,"ECCENTRICITY":0.00014231,"INCLINATION":97.8896,"RA_OF_ASC_NODE":288.0724,"ARG_OF_PERICENTER":83.189,"MEAN_ANOMALY":276.9485,"EPHEMERIS_TYPE":0,"CLASSIFICATION_TYPE":"U","NORAD_CAT_ID":46265,"ELEMENT_SET_NO":999,"REV_AT_EPOCH":30357,"BSTAR":1.802607e-5,"MEAN_MOTION_DOT":9.1e-7,"MEAN_MOTION_DDOT":0},{"OBJECT_NAME":"CSS (TIANHE)","OBJECT_ID":"2021-035A","EPOCH":"2026-04-11T04:57:07.904736","MEAN_MOTION":15.62258168,"ECCENTRICITY":0.00047868,"INCLINATION":41.4683,"RA_OF_ASC_NODE":10.069,"ARG_OF_PERICENTER":183.4306,"MEAN_ANOMALY":176.6502,"EPHEMERIS_TYPE":0,"CLASSIFICATION_TYPE":"U","NORAD_CAT_ID":48274,"ELEMENT_SET_NO":999,"REV_AT_EPOCH":28269,"BSTAR":0.0002365448,"MEAN_MOTION_DOT":0.00021188,"MEAN_MOTION_DDOT":0},{"OBJECT_NAME":"COSMOS 2550","OBJECT_ID":"2021-056A","EPOCH":"2026-04-10T03:25:55.161984","MEAN_MOTION":15.33826857,"ECCENTRICITY":0.00083997,"INCLINATION":67.1407,"RA_OF_ASC_NODE":305.7383,"ARG_OF_PERICENTER":269.3401,"MEAN_ANOMALY":90.6791,"EPHEMERIS_TYPE":0,"CLASSIFICATION_TYPE":"U","NORAD_CAT_ID":48865,"ELEMENT_SET_NO":999,"REV_AT_EPOCH":26828,"BSTAR":3.15712e-7,"MEAN_MOTION_DOT":-1.81e-6,"MEAN_MOTION_DDOT":0},{"OBJECT_NAME":"CZ-2C R/B","OBJECT_ID":"2022-058K","EPOCH":"2026-04-11T06:36:11.165472","MEAN_MOTION":15.56802393,"ECCENTRICITY":0.00406669,"INCLINATION":50.1867,"RA_OF_ASC_NODE":150.3517,"ARG_OF_PERICENTER":340.4722,"MEAN_ANOMALY":19.469,"EPHEMERIS_TYPE":0,"CLASSIFICATION_TYPE":"U","NORAD_CAT_ID":52794,"ELEMENT_SET_NO":999,"REV_AT_EPOCH":21520,"BSTAR":0.00038119327,"MEAN_MOTION_DOT":0.0002854,"MEAN_MOTION_DDOT":0},{"OBJECT_NAME":"CZ-2C R/B","OBJECT_ID":"2022-132E","EPOCH":"2026-04-11T06:29:22.523712","MEAN_MOTION":15.65102187,"ECCENTRICITY":0.00142557,"INCLINATION":97.2951,"RA_OF_ASC_NODE":105.6541,"ARG_OF_PERICENTER":337.2589,"MEAN_ANOMALY":22.8037,"EPHEMERIS_TYPE":0,"CLASSIFICATION_TYPE":"U","NORAD_CAT_ID":54039,"ELEMENT_SET_NO":999,"REV_AT_EPOCH":19546,"BSTAR":0.00038033766,"MEAN_MOTION_DOT":0.00037624,"MEAN_MOTION_DDOT":0},{"OBJECT_NAME":"GSLV R/B","OBJECT_ID":"2022-138AN","EPOCH":"2026-04-11T01:50:17.267136","MEAN_MOTION":14.96977944,"ECCENTRICITY":0.0022931,"INCLINATION":87.3839,"RA_OF_ASC_NODE":155.5158,"ARG_OF_PERICENTER":39.9243,"MEAN_ANOMALY":320.3669,"EPHEMERIS_TYPE":0,"CLASSIFICATION_TYPE":"U","NORAD_CAT_ID":54149,"ELEMENT_SET_NO":999,"REV_AT_EPOCH":18877,"BSTAR":0.0001652739,"MEAN_MOTION_DOT":1.938e-5,"MEAN_MOTION_DDOT":0},{"OBJECT_NAME":"XRISM","OBJECT_ID":"2023-137A","EPOCH":"2026-04-11T06:12:37.702944","MEAN_MOTION":15.11890192,"ECCENTRICITY":0.00076155,"INCLINATION":31.0021,"RA_OF_ASC_NODE":72.9397,"ARG_OF_PERICENTER":6.0916,"MEAN_ANOMALY":353.9814,"EPHEMERIS_TYPE":0,"CLASSIFICATION_TYPE":"U","NORAD_CAT_ID":57800,"ELEMENT_SET_NO":999,"REV_AT_EPOCH":14272,"BSTAR":0.00022553705,"MEAN_MOTION_DOT":4.055e-5,"MEAN_MOTION_DDOT":0},{"OBJECT_NAME":"ACS3","OBJECT_ID":"2024-077B","EPOCH":"2026-04-11T02:20:16.418400","MEAN_MOTION":13.91298432,"ECCENTRICITY":0.0072805,"INCLINATION":97.1902,"RA_OF_ASC_NODE":34.9282,"ARG_OF_PERICENTER":6.5253,"MEAN_ANOMALY":353.6843,"EPHEMERIS_TYPE":0,"CLASSIFICATION_TYPE":"U","NORAD_CAT_ID":59588,"ELEMENT_SET_NO":999,"REV_AT_EPOCH":9870,"BSTAR":0.034099079,"MEAN_MOTION_DOT":0.00044151,"MEAN_MOTION_DDOT":0},{"OBJECT_NAME":"HTV-X1","OBJECT_ID":"2025-241A","EPOCH":"2026-04-11T04:34:12.103104","MEAN_MOTION":15.32613719,"ECCENTRICITY":0.00073835,"INCLINATION":51.6361,"RA_OF_ASC_NODE":276.3648,"ARG_OF_PERICENTER":299.5391,"MEAN_ANOMALY":60.4853,"EPHEMERIS_TYPE":0,"CLASSIFICATION_TYPE":"U","NORAD_CAT_ID":66174,"ELEMENT_SET_NO":999,"REV_AT_EPOCH":2592,"BSTAR":0.00016492757,"MEAN_MOTION_DOT":4.906e-5,"MEAN_MOTION_DDOT":0},{"OBJECT_NAME":"SZ-21 MODULE","OBJECT_ID":"2025-246C","EPOCH":"2026-04-11T03:15:40.048416","MEAN_MOTION":15.71251716,"ECCENTRICITY":0.00041963,"INCLINATION":41.4754,"RA_OF_ASC_NODE":3.2372,"ARG_OF_PERICENTER":256.1188,"MEAN_ANOMALY":103.9188,"EPHEMERIS_TYPE":0,"CLASSIFICATION_TYPE":"U","NORAD_CAT_ID":66515,"ELEMENT_SET_NO":999,"REV_AT_EPOCH":2317,"BSTAR":0.00025254905,"MEAN_MOTION_DOT":0.00032766,"MEAN_MOTION_DDOT":0}]
