HXMT (HUIYAN)           
1 42758U 17034A   26101.28957693  .00004197  00000+0  21257-3 0  9990
2 42758  43.0135 195.3709 0030315  80.4053 280.0219 15.17904752487495
SAOCOM 1A               
1 43641U 18076A   26101.30055126  .00000408  00000+0  57777-4 0  9990
2 43641  97.8910 289.0129 0001451  87.2409 272.8970 14.82145475406192
H-2A R/B                
1 43682U 18084L   26101.11241027  .00015255  00000+0  34760-3 0  9992
2 43682  98.8686 325.4598 0023067 270.2712  89.5888 15.42791208410779
SAOCOM 1B               
1 46265U 20059A   26101.26433353  .00000091  00000+0  18026-4 0  9998
2 46265  97.8896 288.0724 0001423  83.1890 276.9485 14.82155728303574
CSS (TIANHE)            
1 48274U 21035A   26101.20634149  .00021188  00000+0  23654-3 0  9997
2 48274  41.4683  10.0690 0004786 183.4306 176.6502 15.62258168282697
COSMOS 2550             
1 48865U 21056A   26100.14299956 -.00000181  00000+0  31571-6 0  9992
2 48865  67.1407 305.7383 0008399 269.3401  90.6791 15.33826857268287
CZ-2C R/B               
1 52794U 22058K   26101.27512923  .00028540  00000+0  38119-3 0  9998
2 52794  50.1867 150.3517 0040666 340.4722  19.4690 15.56802393215203
CZ-2C R/B               
1 54039U 22132E   26101.27039958  .00037624  00000+0  38034-3 0  9996
2 54039  97.2951 105.6541 0014255 337.2589  22.8037 15.65102187195465
GSLV R/B                
1 54149U 22138AN  26101.07658874  .00001938  00000+0  16527-3 0  9998
2 54149  87.3839 155.5158 0022931  39.9243 320.3669 14.96977944188770
XRISM                   
1 57800U 23137A   26101.25876971  .00004055  00000+0  22554-3 0  9995
2 57800  31.0021  72.9397 0007615   6.0916 353.9814 15.11890192142723
ACS3                    
1 59588U 24077B   26101.09741225  .00044151  00000+0  34099-1 0  9995
2 59588  97.1902  34.9282 0072805   6.5253 353.6843 13.91298432 98704
HTV-X1                  
1 66174U 25241A   26101.19041786  .00004906  00000+0  16493-3 0  9998
2 66174  51.6361 276.3648 0007383 299.5391  60.4853 15.32613719 25925
SZ-21 MODULE            
1 66515U 25246C   26101.13588019  .00032766  00000+0  25255-3 0  9992
2 66515  41.4754   3.2372 0004196 256.1188 103.9188 15.71251716 23177
